NORAD_CAT_ID,OBJECT_NAME,OBJECT_TYPE,EPOCH,MEAN_MOTION,ECCENTRICITY,INCLINATION,RA_OF_ASC_NODE,ARG_OF_PERICENTER,MEAN_ANOMALY,BSTAR,MEAN_MOTION_DOT,MEAN_MOTION_DDOT,TLE_LINE0,TLE_LINE1,TLE_LINE2,SEMIMAJOR_AXIS,PERIOD,APOGEE,PERIGEE,DECAYED
55915.0,STARLINK-5859,PAYLOAD,2023-11-15 03:49:34,14.98328012,0.00025,69.9994,276.3884,267.7583,92.329,1.0506e-06,-8e-07,0.0,0 STARLINK-5859,1 55915U 23037B   23319.15942278 -.00000080  00000-0  10506-5 0  9992,2 55915  69.9994 276.3884 0002500 267.7583  92.3290 14.98328012 37177,6950.199,96.107,573.802,570.326,0.0
55915.0,STARLINK-5859,PAYLOAD,2023-11-15 07:01:50,14.98330053,0.0002387,69.9993,276.0512,262.226,97.8628,9.6024e-06,2.2e-07,0.0,0 STARLINK-5859,1 55915U 23037B   23319.29294095  .00000022  00000-0  96024-5 0  9998,2 55915  69.9993 276.0512 0002387 262.2260  97.8628 14.98330053 37540,6950.193,96.107,573.717,570.399,0.0
55915.0,STARLINK-5859,PAYLOAD,2023-11-15 15:02:30,14.98328125,0.0002497,69.9998,275.2091,272.4966,87.5908,1.2585e-05,5.7e-07,0.0,0 STARLINK-5859,1 55915U 23037B   23319.62674268  .00000057  00000-0  12585-4 0  9996,2 55915  69.9998 275.2091 0002497 272.4966  87.5908 14.98328125 37595,6950.199,96.107,573.799,570.328,0.0
55915.0,STARLINK-5859,PAYLOAD,2023-11-16 02:15:28,14.98311665,0.0002352,70.0002,274.0311,271.858,88.2309,-0.00012479,-1.581e-05,0.0,0 STARLINK-5859,1 55915U 23037B   23320.09408062 -.00001581  00000-0 -12479-3 0  9992,2 55915  70.0002 274.0311 0002352 271.8580  88.2309 14.98311665 37315,6950.25,96.108,573.749,570.48,0.0
55915.0,STARLINK-5859,PAYLOAD,2023-11-16 07:03:54,14.98293447,0.000179,70.0015,273.5262,284.44,75.656,-0.00025585,-3.141e-05,0.0,0 STARLINK-5859,1 55915U 23037B   23320.29438078 -.00003141  00000-0 -25585-3 0  9990,2 55915  70.0015 273.5262 0001790 284.4400  75.6560 14.98293447 37343,6950.306,96.109,573.415,570.927,0.0
55915.0,STARLINK-5859,PAYLOAD,2023-11-17 03:53:29,14.98430984,0.0002487,70.0017,271.3363,288.6129,71.4759,0.0012017,0.00014312,0.0,0 STARLINK-5859,1 55915U 23037B   23321.16214489  .00014312  00000-0  12017-2 0  9990,2 55915  70.0017 271.3363 0002487 288.6129  71.4759 14.98430984 37478,6949.881,96.101,573.474,570.017,0.0
55915.0,STARLINK-5859,PAYLOAD,2023-11-17 07:05:55,14.98298254,0.0002445,70.0006,271.0003,295.9743,64.1164,-0.00031607,-3.859e-05,0.0,0 STARLINK-5859,1 55915U 23037B   23321.29578145 -.00003859  00000-0 -31607-3 0  9999,2 55915  70.0006 271.0003 0002445 295.9743  64.1164 14.98298254 37494,6950.291,96.109,573.855,570.457,0.0
55915.0,STARLINK-5859,PAYLOAD,2023-11-17 13:30:24,14.98343376,0.0002133,70.0005,270.3268,291.8308,68.2624,0.00018535,2.12e-05,0.0,0 STARLINK-5859,1 55915U 23037B   23321.56278202  .00002120  00000-0  18535-3 0  9993,2 55915  70.0005 270.3268 0002133 291.8308  68.2624 14.98343376 37889,6950.152,96.106,573.499,570.534,0.0
55915.0,STARLINK-5859,PAYLOAD,2023-11-17 19:54:56,14.98330029,0.0002518,69.9992,269.6541,277.0024,83.0848,0.00028013,3.251e-05,0.0,0 STARLINK-5859,1 55915U 23037B   23321.82982370  .00003251  00000-0  28013-3 0  9998,2 55915  69.9992 269.6541 0002518 277.0024  83.0848 14.98330029 37574,6950.193,96.107,573.808,570.308,0.0
55915.0,STARLINK-5859,PAYLOAD,2023-11-18 13:32:25,14.9832439,0.0001689,70.0012,267.8022,288.0383,72.0592,0.00031157,3.626e-05,0.0,0 STARLINK-5859,1 55915U 23037B   23322.56418800  .00003626  00000-0  31157-3 0  9991,2 55915  70.0012 267.8022 0001689 288.0383  72.0592 14.98324390 38032,6950.21,96.107,573.249,570.901,0.0
55915.0,STARLINK-5859,PAYLOAD,2023-11-19 03:57:37,14.98338711,0.000195,70.0004,266.2885,280.1923,79.9016,-6.1033e-05,-8.21e-06,0.0,0 STARLINK-5859,1 55915U 23037B   23323.16502305 -.00000821  00000-0 -61033-4 0  9995,2 55915  70.0004 266.2885 0001950 280.1923  79.9016 14.98338711 37776,6950.166,96.106,573.386,570.676,0.0
55915.0,STARLINK-5859,PAYLOAD,2023-11-19 13:34:25,14.98365157,0.0002188,69.9997,265.2767,288.0117,72.0803,-0.00061624,-7.444e-05,0.0,0 STARLINK-5859,1 55915U 23037B   23323.56557592 -.00007444  00000-0 -61624-3 0  9990,2 55915  69.9997 265.2767 0002188 288.0117  72.0803 14.98365157 38186,6950.084,96.105,573.47,570.428,0.0
55915.0,STARLINK-5859,PAYLOAD,2023-11-19 21:35:06,14.983371,0.000249,69.9999,264.4356,277.4052,82.6824,-0.00013094,-1.655e-05,0.0,0 STARLINK-5859,1 55915U 23037B   23323.89937985 -.00001655  00000-0 -13094-3 0  9990,2 55915  69.9999 264.4356 0002490 277.4052  82.6824 14.98337100 38232,6950.171,96.107,573.767,570.305,0.0
55915.0,STARLINK-5859,PAYLOAD,2023-11-20 03:59:36,14.98366736,0.000204,69.9999,263.762,264.4901,95.6026,0.00021783,2.509e-05,0.0,0 STARLINK-5859,1 55915U 23037B   23324.16639213  .00002509  00000-0  21783-3 0  9995,2 55915  69.9999 263.7620 0002040 264.4901  95.6026 14.98366736 37928,6950.079,96.105,573.362,570.526,0.0
55915.0,STARLINK-5859,PAYLOAD,2023-11-20 05:35:46,14.98332999,0.0002156,69.9998,263.5937,280.252,79.8396,-0.00015887,-1.988e-05,0.0,0 STARLINK-5859,1 55915U 23037B   23324.23318143 -.00001988  00000-0 -15887-3 0  9999,2 55915  69.9998 263.5937 0002156 280.2520  79.8396 14.98332999 37936,6950.184,96.107,573.547,570.55,0.0
55915.0,STARLINK-5859,PAYLOAD,2023-11-20 13:36:26,14.98337161,0.0002505,70.0001,262.7521,274.9854,85.1019,-0.00014087,-1.774e-05,0.0,0 STARLINK-5859,1 55915U 23037B   23324.56697543 -.00001774  00000-0 -14087-3 0  9993,2 55915  70.0001 262.7521 0002505 274.9854  85.1019 14.98337161 38335,6950.171,96.107,573.777,570.295,0.0
55915.0,STARLINK-5859,PAYLOAD,2023-11-20 21:37:07,14.98330581,0.0002417,69.9995,261.9111,272.2902,87.798,-2.2162e-05,-3.57e-06,0.0,0 STARLINK-5859,1 55915U 23037B   23324.90077591 -.00000357  00000-0 -22162-4 0  9996,2 55915  69.9995 261.9111 0002417 272.2902  87.7980 14.98330581 38386,6950.191,96.107,573.736,570.376,0.0
55915.0,STARLINK-5859,PAYLOAD,2023-11-21 05:37:46,14.98334992,0.0002332,69.9996,261.0691,271.4837,88.6055,2.4947e-05,2.05e-06,0.0,0 STARLINK-5859,1 55915U 23037B   23325.23457130  .00000205  00000-0  24947-4 0  9997,2 55915  69.9996 261.0691 0002332 271.4837  88.6055 14.98334992 38085,6950.177,96.107,573.663,570.422,0.0
55915.0,STARLINK-5859,PAYLOAD,2023-11-21 21:39:08,14.98328544,0.0002324,69.9999,259.3873,271.062,89.0272,-2.1154e-05,-3.45e-06,0.0,0 STARLINK-5859,1 55915U 23037B   23325.90217617 -.00000345  00000-0 -21154-4 0  9999,2 55915  69.9999 259.3873 0002324 271.0620  89.0272 14.98328544 38539,6950.197,96.107,573.678,570.447,0.0
55915.0,STARLINK-5859,PAYLOAD,2023-11-22 04:03:40,14.98329688,0.0002174,69.9996,258.7137,261.8195,98.2718,-1.4891e-06,-1.11e-06,0.0,0 STARLINK-5859,1 55915U 23037B   23326.16921471 -.00000111  00000-0 -14891-5 0  9990,2 55915  69.9996 258.7137 0002174 261.8195  98.2718 14.98329688 38222,6950.194,96.107,573.57,570.548,0.0
55915.0,STARLINK-5859,PAYLOAD,2023-11-22 05:39:48,14.98324806,0.0002192,69.9997,258.5437,270.3515,89.7393,0.0001828,2.089e-05,0.0,0 STARLINK-5859,1 55915U 23037B   23326.23597349  .00002089  00000-0  18280-3 0  9999,2 55915  69.9997 258.5437 0002192 270.3515  89.7393 14.98324806 38585,6950.209,96.107,573.597,570.55,0.0
55915.0,STARLINK-5859,PAYLOAD,2023-11-22 20:05:00,14.98337963,0.0002296,69.9992,257.0297,273.9162,86.1735,-1.3122e-05,-2.5e-06,0.0,0 STARLINK-5859,1 55915U 23037B   23326.83680923 -.00000250  00000-0 -13122-4 0  9997,2 55915  69.9992 257.0297 0002296 273.9162  86.1735 14.98337963 38321,6950.168,96.106,573.629,570.438,0.0
55915.0,STARLINK-5859,PAYLOAD,2023-11-22 21:41:08,14.98334192,0.000244,69.9994,256.8606,270.6432,89.4447,4.2456e-05,4.14e-06,0.0,0 STARLINK-5859,1 55915U 23037B   23326.90356866  .00000414  00000-0  42456-4 0  9993,2 55915  69.9994 256.8606 0002440 270.6432  89.4447 14.98334192 38685,6950.18,96.107,573.741,570.349,0.0
55915.0,STARLINK-5859,PAYLOAD,2023-11-23 05:41:48,14.98337479,0.0002231,70.0003,256.0194,276.3097,83.7807,0.00017041,1.941e-05,0.0,0 STARLINK-5859,1 55915U 23037B   23327.23736211  .00001941  00000-0  17041-3 0  9993,2 55915  70.0003 256.0194 0002231 276.3097  83.7807 14.98337479 38735,6950.17,96.107,573.585,570.484,0.0
55915.0,STARLINK-5859,PAYLOAD,2023-11-23 20:07:02,14.98315337,0.0002336,70.0004,254.5054,276.2319,83.8574,-0.00010751,-1.375e-05,0.0,0 STARLINK-5859,1 55915U 23037B   23327.83822397 -.00001375  00000-0 -10751-3 0  9994,2 55915  70.0004 254.5054 0002336 276.2319  83.8574 14.98315337 38478,6950.238,96.108,573.727,570.48,0.0
55915.0,STARLINK-5859,PAYLOAD,2023-11-23 21:43:10,14.98314733,0.0002748,69.9994,254.3376,282.3744,77.7108,-0.00015406,-1.93e-05,0.0,0 STARLINK-5859,1 55915U 23037B   23327.90498754 -.00001930  00000-0 -15406-3 0  9997,2 55915  69.9994 254.3376 0002748 282.3744  77.7108 14.98314733 38839,6950.24,96.108,574.015,570.195,0.0
55915.0,STARLINK-5859,PAYLOAD,2023-11-24 05:43:51,14.98316902,0.0002219,69.9998,253.4953,273.1635,86.927,-0.00010011,-1.287e-05,0.0,0 STARLINK-5859,1 55915U 23037B   23328.23878576 -.00001287  00000-0 -10011-3 0  9990,2 55915  69.9998 253.4953 0002219 273.1635  86.9270 14.98316902 38881,6950.233,96.108,573.641,570.556,0.0
55915.0,STARLINK-5859,PAYLOAD,2023-11-24 20:09:02,14.98333531,0.0002879,69.998,251.9815,280.411,79.6724,-0.00011125,-1.42e-05,0.0,0 STARLINK-5859,1 55915U 23037B   23328.83961684 -.00001420  00000-0 -11125-3 0  9995,2 55915  69.9980 251.9815 0002879 280.4110  79.6724 14.98333531 38625,6950.182,96.107,574.048,570.046,0.0
55915.0,STARLINK-5859,PAYLOAD,2023-11-24 21:45:10,14.98331901,0.00026,69.9999,251.8145,274.3744,85.7118,-6.6502e-05,-8.86e-06,0.0,0 STARLINK-5859,1 55915U 23037B   23328.90637642 -.00000886  00000-0 -66502-4 0  9992,2 55915  69.9999 251.8145 0002600 274.3744  85.7118 14.98331901 38980,6950.187,96.107,573.859,570.245,0.0
55915.0,STARLINK-5859,PAYLOAD,2023-11-25 04:09:43,14.98325553,0.0002203,69.9997,251.1418,257.8108,102.2805,-0.00016065,-2.009e-05,0.0,0 STARLINK-5859,1 55915U 23037B   23329.17342042 -.00002009  00000-0 -16065-3 0  9996,2 55915  69.9997 251.1418 0002203 257.8108 102.2805 14.98325553 39023,6950.207,96.107,573.603,570.541,0.0
